#dP2018  6 10  0  0  0.00000000      96 __u+U ITR00 FIT  IAC
## 2005      0.00000000   900.00000000 58279 0.0000000000000
+   86   C01C02C03C04C05C06C07C08C09C10C11C12C13C14E01E02E03
+        E04E05E07E08E09E11E12E14E18E19E24E26E30G01G02G03G04
+        G05G06G07G08G09G10G11G12G13G14G15G16G17G18G19G20G21
+        G22G23G24G25G26G27G28G29G30G31G32J01R01R02R03R04R05
+        R07R08R09R10R11R13R14R15R16R17R18R19R20R21R22R23R24
+        R26  0  0  0  0  0  0  0  0  0  0  0  0  0  0  0  0
++         0  0  0  0  0  0  0  0  0  0  0  0  0  0  0  0  0
++         0  0  0  0  0  0  0  0  0  0  0  0  0  0  0  0  0
++         0  0  0  0  0  0  0  0  0  0  0  0  0  0  0  0  0
++         0  0  0  0  0  0  0  0  0  0  0  0  0  0  0  0  0
++         0  0  0  0  0  0  0  0  0  0  0  0  0  0  0  0  0
++         0  0  0  0  0  0  0  0  0  0  0  0  0  0  0  0  0
%c M  cc GPS ccc cccc cccc cccc cccc ccccc ccccc ccccc ccccc
%c cc cc ccc ccc cccc cccc cccc cccc ccccc ccccc ccccc ccccc
%f  0.0000000  0.000000000  0.00000000000  0.000000000000000
%f  0.0000000  0.000000000  0.00000000000  0.000000000000000
%i    0    0    0    0      0      0      0      0         0
%i    0    0    0    0      0      0      0      0         0
/*                                                          
/*   RSA / INFORMATION & ANALYSIS CENTER (IAC) OF MCC       
/*   ULTRA-RAPID DETERMINATION                              
/* PCV:IGS14_2000 OL/AL:FES2004  NONE     YN ORB:CoN CLK:CoN
*  2018 06 10 16 45  0.00000000
PC01 -32351.900964  27039.339990  -1045.818931   -184.741645
PC02   4364.533687  41933.240133    599.018129    155.637656
PC03 -14739.478357  39504.490528   -901.897152     66.046771
PC04 -39602.089156  14441.406711   -637.716659    -52.607224
PC05  21836.139265  36078.570859    561.124054    373.953393
PC06  -8944.528214  24244.381317  33644.392541     49.107390
PC07 -25426.842671  27367.962071 -19873.223929    114.096448
PC08 -13898.421491  37589.749535 -12673.807887    383.859176
PC09   5730.653411  31764.489499  27477.924437    -49.936256
PC10  -8335.170205  28518.316371 -29924.072955   -299.170238
PC11   4856.932868 -21625.149402  17049.765547   -544.113017
PC12  15259.463117  -3010.383987  23216.387397    472.990435
PC13  -5836.434368  41624.545001    367.260509   -370.150822
PC14  12924.363152 -12679.472824 -21184.201536    319.815822
PE01  11918.302683  11709.144291 -24436.757641   -365.188137
PE02 -11955.322117 -11680.295989  24425.145020     15.963196
PE03 -20532.094494 -19732.605229  -8085.318514    -41.947715
PE04  26556.681197   8090.509904 -10262.648990    -52.254952
PE05  -2428.658439 -19867.963832 -21796.055403    248.434052
PE07 -17038.579820   8387.187062  22722.068062     17.676974
PE08 -26609.559750  -7876.027896  10324.785759   6566.908427
PE09  16905.177579  -8394.823635 -22783.944354   6767.011369
PE11  12979.335315 -19036.919367  18562.297518   1004.472406
PE12  16351.625269   3144.649668  24475.297894   4352.547915
PE14 -22239.315343 -11073.481634 -16539.841452   6569.035647
PE18  16274.216641  21629.360027   4376.156071   6142.897260
PE19  19312.904573  20182.994866   9811.563621     23.110179
PE24  24426.899122 -16142.199679   4369.998118   6660.219731
PE26  -2387.695563  29425.083078  -2173.967135   5837.569301
PE30 -25806.686552   3144.838685  14141.006734   5769.258221
PG01  13753.496327 -22208.123027   3634.142226    -55.098806
PG02 -16874.757473   4388.858984 -19408.713896     89.815939
PG03  15472.931698 -13087.478168 -17156.169883     86.708045
PG04  20553.921352   9027.845981 -14667.464467     68.098322
PG05 -26590.730344   2133.511264   -398.303522     -6.390092
PG06 -10866.986560 -11194.386493 -21459.110060    397.098157
PG07   3184.777734 -23685.674812  11295.917277    177.513925
PG08  12816.887621  -7916.616841  21921.544220   -104.297040
PG09  -5035.695801 -22895.243677 -12500.873620    514.579624
PG10  15866.365639  11499.056950  18047.131962    187.853280
PG11   9773.409730 -21591.553011  11586.306020   -734.190778
PG12 -19272.041837  10192.746542 -15225.969356    328.239823
PG13 -16728.681282  -1824.877680  20441.571917    -93.617054
PG14  18133.464553  15360.791519 -11741.244109    -97.333565
PG15 -11710.359552  10652.055732  21102.048593   -352.857047
PG16  26762.696820    955.379842   -927.754574     21.890889
PG17 -15284.100571 -21544.128877  -2953.240288    -89.584104
PG18  16351.301394 -17144.799710  11356.824627     19.986719
PG19 -17598.117729 -16258.960257 -11567.709882   -429.503550
PG20   3352.717356  15511.147728  21182.893069    510.191307
PG21   1463.792194  22842.420574  14290.001811   -383.258638
PG22  22146.260732 -10473.172230 -10001.492858   -421.410472
PG23   5951.147079 -16381.506677 -19631.437642   -216.047330
PG24 -14823.115186  20537.353511   7373.254274    -50.960401
PG25  -4827.335032  14986.961085 -21536.861295   -598.815240
PG26  23614.781574   5661.897582 -10925.165594   -120.124183
PG27  18523.412909   5286.737804  18320.926252    366.436463
PG28 -11879.922152 -13539.656777  20123.679012    722.558902
PG29   1827.604222  22171.521650 -14544.468849    434.803442
PG30  -4470.793104 -18902.749610  18050.250849     64.089457
PG31  12113.201490   9305.564364 -21662.247298    115.537509
PG32  16477.575312  20714.137394  -2684.947491   -496.299668
PJ01 -29332.818613  24483.095975  23005.193083   -224.956143
PR01  19823.755211  12738.867297   9756.261865     27.461808
PR02  23102.096741   4260.980839  -9955.347452    314.133369
PR03  11749.028979  -6431.060236 -21671.063621    134.607240
PR04  -6982.721357 -13370.297181 -20543.158793    264.280015
PR05 -21029.713603 -12158.587413  -7803.598452    -22.282387
PR07 -11271.652295   6731.797787  21903.907444    -39.722822
PR08   6272.137103  13294.615540  20904.985357     22.805956
PR09 -20692.796557   8227.475551  12516.235871     24.059192
PR10 -18756.621061  16810.081485  -4335.417892     25.856682
PR11  -5554.388512  15851.436679 -19205.788941    -30.938468
PR13  20420.997665  -8685.939757 -12588.588075    -11.260332
PR14  18693.124360 -16849.834914   4113.923907     28.065203
PR15   9306.965134 -16851.797095  16791.576142    -11.488721
PR16  -9887.345842  -5958.573155  22711.309250     94.574739
PR17   6272.638652 -16666.666417  18281.377219    139.113113
PR18  -1716.578432 -25154.878151   3641.565427    198.784797
PR19  -8399.074884 -20007.121837 -13409.577009    -54.456227
PR20 -10685.133656  -1756.754357 -23088.610286   -341.133418
PR21  -6063.796052  16912.564224 -18101.387104     12.480546
PR22   2648.306877  25396.248624  -1530.051912    -50.087801
PR23   9756.561744  16915.635201  16405.824450    158.913846
PR24  10662.154577    577.017712  23138.654346   -167.422682
PR26 -10842.344031  -2523.171064 -22943.525714     25.632080
EOF
